https://ssd.jpl.nasa.gov/api/horizons.api?format=text&COMMAND=%2710%27&CENTER=%27@sun%27&MAKE_EPHEM=%27YES%27&EPHEM_TYPE=%27VECTORS%27&START_TIME=%272005-01-01%27&STOP_TIME=%272025-01-01%27&STEP_SIZE=%271%20d%27&REF_PLANE=%27ECLIPTIC%27


API VERSION: 1.2
API SOURCE: NASA/JPL Horizons API

*******************************************************************************
 Revised: July 31, 2013                  Sun                                 10

 PHYSICAL PROPERTIES (updated 2024-Oct-30):
  GM, km^3/s^2          = 132712440041.93938  Mass, 10^24 kg        = ~1988410
  Vol. mean radius, km  = 695700              Volume, 10^12 km^3    = 1412000
  Solar radius (IAU2015)= 695700 km           Mean density, g/cm^3  = 1.408
  Radius (photosphere)  = 696500 km           Angular diam at 1 AU  = 1919.3"
  Photosphere temp., K  = 6600 (bottom)       Photosphere temp., K  = 4400(top)
  Photospheric depth    = ~500 km             Chromospheric depth   = ~2500 km
  Flatness, f           = 0.00005             Adopted sid. rot. per.= 25.38 d
  Surface gravity       =  274.0 m/s^2        Escape speed, km/s    =  617.7
  Pole (RA,DEC), deg.   = (286.13, 63.87)     Obliquity to ecliptic = 7.25 deg.
  Solar constant (1 AU) = 1367.6 W/m^2        Luminosity, 10^24 J/s = 382.8
  Mass-energy conv rate = 4.260 x 10^9 kg/s   Effective temp, K     = 5772
  Sunspot cycle         = 11.4 yr             Cycle 24 sunspot min. = 2008 A.D.

  Motion relative to nearby stars = apex : R.A.= 271 deg.; DEC.= +30 deg.
                                    speed: 19.4 km/s (0.0112 au/day)
  Motion relative to 2.73K BB/CBR = apex : l= 264.7 +- 0.8; b= 48.2 +- 0.5 deg.
                                    speed: 369 +-11 km/s
*******************************************************************************


*******************************************************************************
Ephemeris / API_USER Mon May  5 13:22:18 2025 Pasadena, USA      / Horizons
*******************************************************************************
Target body name: Sun (10)                        {source: DE441}
Center body name: Sun (10)                        {source: DE441}
Center-site name: BODY CENTER
*******************************************************************************
Start time      : A.D. 2005-Jan-01 00:00:00.0000 TDB
Stop  time      : A.D. 2025-Jan-01 00:00:00.0000 TDB
Step-size       : 1440 minutes
*******************************************************************************
Center geodetic : 0.0, 0.0, 0.0                   {E-lon(deg),Lat(deg),Alt(km)}
Center cylindric: 0.0, 0.0, 0.0                   {E-lon(deg),Dxy(km),Dz(km)}
Center radii    : 695700.0, 695700.0, 695700.0 km {Equator_a, b, pole_c}
Output units    : KM-S
Calendar mode   : Mixed Julian/Gregorian
Output type     : GEOMETRIC cartesian states
Output format   : 3 (position, velocity, LT, range, range-rate)
Reference frame : Ecliptic of J2000.0
*******************************************************************************
JDTDB
   X     Y     Z
   VX    VY    VZ
   LT    RG    RR
*******************************************************************************
$$SOE
2454383.500000000 = A.D. 2007-Oct-10 00:00:00.0000 TDB 
 X = 0.000000000000000E+00 Y = 0.000000000000000E+00 Z = 0.000000000000000E+00
 VX= 0.000000000000000E+00 VY= 0.000000000000000E+00 VZ= 0.000000000000000E+00
 LT= 0.000000000000000E+00 RG= 0.000000000000000E+00 RR= 0.000000000000000E+00
2454384.500000000 = A.D. 2007-Oct-11 00:00:00.0000 TDB 
 X = 0.000000000000000E+00 Y = 0.000000000000000E+00 Z = 0.000000000000000E+00
 VX= 0.000000000000000E+00 VY= 0.000000000000000E+00 VZ= 0.000000000000000E+00
 LT= 0.000000000000000E+00 RG= 0.000000000000000E+00 RR= 0.000000000000000E+00
2454385.500000000 = A.D. 2007-Oct-12 00:00:00.0000 TDB 
 X = 0.000000000000000E+00 Y = 0.000000000000000E+00 Z = 0.000000000000000E+00
 VX= 0.000000000000000E+00 VY= 0.000000000000000E+00 VZ= 0.000000000000000E+00
 LT= 0.000000000000000E+00 RG= 0.000000000000000E+00 RR= 0.000000000000000E+00
2454386.500000000 = A.D. 2007-Oct-13 00:00:00.0000 TDB 
 X = 0.000000000000000E+00 Y = 0.000000000000000E+00 Z = 0.000000000000000E+00
 VX= 0.000000000000000E+00 VY= 0.000000000000000E+00 VZ= 0.000000000000000E+00
 LT= 0.000000000000000E+00 RG= 0.000000000000000E+00 RR= 0.000000000000000E+00
2454387.500000000 = A.D. 2007-Oct-14 00:00:00.0000 TDB 
 X = 0.000000000000000E+00 Y = 0.000000000000000E+00 Z = 0.000000000000000E+00
 VX= 0.000000000000000E+00 VY= 0.000000000000000E+00 VZ= 0.000000000000000E+00
 LT= 0.000000000000000E+00 RG= 0.000000000000000E+00 RR= 0.000000000000000E+00
2454388.500000000 = A.D. 2007-Oct-15 00:00:00.0000 TDB 
 X = 0.000000000000000E+00 Y = 0.000000000000000E+00 Z = 0.000000000000000E+00
 VX= 0.000000000000000E+00 VY= 0.000000000000000E+00 VZ= 0.000000000000000E+00
 LT= 0.000000000000000E+00 RG= 0.000000000000000E+00 RR= 0.000000000000000E+00
2454389.500000000 = A.D. 2007-Oct-16 00:00:00.0000 TDB 
 X = 0.000000000000000E+00 Y = 0.000000000000000E+00 Z = 0.000000000000000E+00
 VX= 0.000000000000000E+00 VY= 0.000000000000000E+00 VZ= 0.000000000000000E+00
 LT= 0.000000000000000E+00 RG= 0.000000000000000E+00 RR= 0.000000000000000E+00
2454390.500000000 = A.D. 2007-Oct-17 00:00:00.0000 TDB 
 X = 0.000000000000000E+00 Y = 0.000000000000000E+00 Z = 0.000000000000000E+00
 VX= 0.000000000000000E+00 VY= 0.000000000000000E+00 VZ= 0.000000000000000E+00
 LT= 0.000000000000000E+00 RG= 0.000000000000000E+00 RR= 0.000000000000000E+00
2454391.500000000 = A.D. 2007-Oct-18 00:00:00.0000 TDB 
 X = 0.000000000000000E+00 Y = 0.000000000000000E+00 Z = 0.000000000000000E+00
 VX= 0.000000000000000E+00 VY= 0.000000000000000E+00 VZ= 0.000000000000000E+00
 LT= 0.000000000000000E+00 RG= 0.000000000000000E+00 RR= 0.000000000000000E+00
2454392.500000000 = A.D. 2007-Oct-19 00:00:00.0000 TDB 
 X = 0.000000000000000E+00 Y = 0.000000000000000E+00 Z = 0.000000000000000E+00
 VX= 0.000000000000000E+00 VY= 0.000000000000000E+00 VZ= 0.000000000000000E+00
 LT= 0.000000000000000E+00 RG= 0.000000000000000E+00 RR= 0.000000000000000E+00
2454393.500000000 = A.D. 2007-Oct-20 00:00:00.0000 TDB 
 X = 0.000000000000000E+00 Y = 0.000000000000000E+00 Z = 0.000000000000000E+00
 VX= 0.000000000000000E+00 VY= 0.000000000000000E+00 VZ= 0.000000000000000E+00
 LT= 0.000000000000000E+00 RG= 0.000000000000000E+00 RR= 0.000000000000000E+00
2454394.500000000 = A.D. 2007-Oct-21 00:00:00.0000 TDB 
 X = 0.000000000000000E+00 Y = 0.000000000000000E+00 Z = 0.000000000000000E+00
 VX= 0.000000000000000E+00 VY= 0.000000000000000E+00 VZ= 0.000000000000000E+00
 LT= 0.000000000000000E+00 RG= 0.000000000000000E+00 RR= 0.000000000000000E+00
2454395.500000000 = A.D. 2007-Oct-22 00:00:00.0000 TDB 
 X = 0.000000000000000E+00 Y = 0.000000000000000E+00 Z = 0.000000000000000E+00
 VX= 0.000000000000000E+00 VY= 0.000000000000000E+00 VZ= 0.000000000000000E+00
 LT= 0.000000000000000E+00 RG= 0.000000000000000E+00 RR= 0.000000000000000E+00
2454396.500000000 = A.D. 2007-Oct-23 00:00:00.0000 TDB 
 X = 0.000000000000000E+00 Y = 0.000000000000000E+00 Z = 0.000000000000000E+00
 VX= 0.000000000000000E+00 VY= 0.000000000000000E+00 VZ= 0.000000000000000E+00
 LT= 0.000000000000000E+00 RG= 0.000000000000000E+00 RR= 0.000000000000000E+00
2454397.500000000 = A.D. 2007-Oct-24 00:00:00.0000 TDB 
 X = 0.000000000000000E+00 Y = 0.000000000000000E+00 Z = 0.000000000000000E+00
 VX= 0.000000000000000E+00 VY= 0.000000000000000E+00 VZ= 0.000000000000000E+00
 LT= 0.000000000000000E+00 RG= 0.000000000000000E+00 RR= 0.000000000000000E+00
2454398.500000000 = A.D. 2007-Oct-25 00:00:00.0000 TDB 
 X = 0.000000000000000E+00 Y = 0.000000000000000E+00 Z = 0.000000000000000E+00
 VX= 0.000000000000000E+00 VY= 0.000000000000000E+00 VZ= 0.000000000000000E+00
 LT= 0.000000000000000E+00 RG= 0.000000000000000E+00 RR= 0.000000000000000E+00
2454399.500000000 = A.D. 2007-Oct-26 00:00:00.0000 TDB 
 X = 0.000000000000000E+00 Y = 0.000000000000000E+00 Z = 0.000000000000000E+00
 VX= 0.000000000000000E+00 VY= 0.000000000000000E+00 VZ= 0.000000000000000E+00
 LT= 0.000000000000000E+00 RG= 0.000000000000000E+00 RR= 0.000000000000000E+00
2454400.500000000 = A.D. 2007-Oct-27 00:00:00.0000 TDB 
 X = 0.000000000000000E+00 Y = 0.000000000000000E+00 Z = 0.000000000000000E+00
 VX= 0.000000000000000E+00 VY= 0.000000000000000E+00 VZ= 0.000000000000000E+00
 LT= 0.000000000000000E+00 RG= 0.000000000000000E+00 RR= 0.000000000000000E+00
2454401.500000000 = A.D. 2007-Oct-28 00:00:00.0000 TDB 
 X = 0.000000000000000E+00 Y = 0.000000000000000E+00 Z = 0.000000000000000E+00
 VX= 0.000000000000000E+00 VY= 0.000000000000000E+00 VZ= 0.000000000000000E+00
 LT= 0.000000000000000E+00 RG= 0.000000000000000E+00 RR= 0.000000000000000E+00
2454402.500000000 = A.D. 2007-Oct-29 00:00:00.0000 TDB 
 X = 0.000000000000000E+00 Y = 0.000000000000000E+00 Z = 0.000000000000000E+00
 VX= 0.000000000000000E+00 VY= 0.000000000000000E+00 VZ= 0.000000000000000E+00
 LT= 0.000000000000000E+00 RG= 0.000000000000000E+00 RR= 0.000000000000000E+00
2454403.500000000 = A.D. 2007-Oct-30 00:00:00.0000 TDB 
 X = 0.000000000000000E+00 Y = 0.000000000000000E+00 Z = 0.000000000000000E+00
 VX= 0.000000000000000E+00 VY= 0.000000000000000E+00 VZ= 0.000000000000000E+00
 LT= 0.000000000000000E+00 RG= 0.000000000000000E+00 RR= 0.000000000000000E+00
2454404.500000000 = A.D. 2007-Oct-31 00:00:00.0000 TDB 
 X = 0.000000000000000E+00 Y = 0.000000000000000E+00 Z = 0.000000000000000E+00
 VX= 0.000000000000000E+00 VY= 0.000000000000000E+00 VZ= 0.000000000000000E+00
 LT= 0.000000000000000E+00 RG= 0.000000000000000E+00 RR= 0.000000000000000E+00
2454405.500000000 = A.D. 2007-Nov-01 00:00:00.0000 TDB 
 X = 0.000000000000000E+00 Y = 0.000000000000000E+00 Z = 0.000000000000000E+00
 VX= 0.000000000000000E+00 VY= 0.000000000000000E+00 VZ= 0.000000000000000E+00
 LT= 0.000000000000000E+00 RG= 0.000000000000000E+00 RR= 0.000000000000000E+00
